[{"OBJECT_NAME":"STARLINK-31520","OBJECT_ID":"2024-046K","EPOCH":"2026-03-09T12:42:14.261472","MEAN_MOTION":15.30191029,"ECCENTRICITY":0.00012575,"INCLINATION":53.1606,"RA_OF_ASC_NODE":156.1783,"ARG_OF_PERICENTER":93.81,"MEAN_ANOMALY":266.3045,"EPHEMERIS_TYPE":0,"CLASSIFICATION_TYPE":"U","NORAD_CAT_ID":59210,"ELEMENT_SET_NO":999,"REV_AT_EPOCH":11302,"BSTAR":-6.1777787e-5,"MEAN_MOTION_DOT":-2.188e-5,"MEAN_MOTION_DDOT":0},{"OBJECT_NAME":"COSMOS 2535 DEB","OBJECT_ID":"2019-039M","EPOCH":"2026-03-08T03:25:35.903424","MEAN_MOTION":15.28322551,"ECCENTRICITY":0.0014917,"INCLINATION":97.5619,"RA_OF_ASC_NODE":139.2722,"ARG_OF_PERICENTER":329.0964,"MEAN_ANOMALY":30.9396,"EPHEMERIS_TYPE":0,"CLASSIFICATION_TYPE":"U","NORAD_CAT_ID":44641,"ELEMENT_SET_NO":999,"REV_AT_EPOCH":35167,"BSTAR":0.0011539757,"MEAN_MOTION_DOT":0.0003196,"MEAN_MOTION_DDOT":0}]
